SL-3 R/B                
1 19046U 88032B   18034.92081997  .00000224  00000-0  21236-4 0  9998
2 19046  97.5015  79.7377 0035799 263.2463  96.4688 15.02387033607149
SL-16 R/B               
1 19120U 88039B   18034.84542212  .00000043  00000-0  43540-4 0  9992
2 19120  71.0135 195.4357 0022688 198.6248 161.4049 14.19181118538983
COSMOS 1953             
1 19210U 88050A   18035.40778743 -.00000126  00000-0 -10809-4 0  9994
2 19210  82.5184 168.2029 0013629 181.2431 178.8765 15.05491402612778
SL-8 R/B                
1 19257U 88053B   18034.77970890  .00000002  00000-0  95723-5 0  9994
2 19257  74.0495 150.7732 0020864 341.0720 127.5848 14.37389558551769
COSMOS 1975             
1 19573U 88093A   18034.75622643  .00000034  00000-0  36377-6 0  9993
2 19573  82.5209 121.4150 0013207 224.7134 135.3029 15.04388714594623
SL-14 R/B               
1 19574U 88093B   18034.80138885  .00000073  00000-0  59420-5 0  9996
2 19574  82.5326 288.5165 0023151  74.1245 350.3688 14.83252561583785
SL-16 R/B               
1 19650U 88102B   18035.10861776  .00000088  00000-0  69130-4 0  9992
2 19650  70.9980 247.4266 0014920 198.5223 161.5359 14.15768174508819
INTERCOSMOS 24          
1 20261U 89080A   18034.91694571 -.00000002  00000-0 -12150-5 0  9992
2 20261  82.5941 219.8316 1203095 282.3605  64.5638 12.55953772295462
SL-14 R/B               
1 20262U 89080C   18034.71168468  .00000092  00000-0  17692-4 0  9994
2 20262  82.5919 267.8003 1237999  88.7662 285.4611 12.48884077291043
DELTA 1 R/B             
1 20323U 89089B   18035.20082447  .00000043  00000-0  20075-4 0  9993
2 20323  97.1242 309.6604 0073293  71.3299 289.5836 14.48240687488308
DELTA 2 R/B(1)          
1 20453U 90008B   18034.83699149  .00000672  00000-0  40552-4 0  9991
2 20453  35.6269 308.5302 0287692 295.9102  61.2223 14.83849978482629
COSMOS 2058             
1 20465U 90010A   18035.06911663  .00000198  00000-0  14601-4 0  9990
2 20465  82.4887  24.8825 0014229 230.1242 129.8730 14.97666864520045
SL-14 R/B               
1 20466U 90010B   18035.40823543  .00000073  00000-0  63251-5 0  9996
2 20466  82.5053 155.3279 0019151 297.7068  62.2203 14.81312585511876
SL-14 R/B               
1 20511U 90018B   18035.56523193  .00000096  00000-0  95522-5 0  9991
2 20511  82.5226  97.7183 0018959  72.8680  39.8424 14.79970671506433
HST                     
1 20580U 90037B   18034.91877184  .00000412  00000-0  14257-4 0  9995
2 20580  28.4692 276.0463 0002847 144.1696 318.4104 15.08973497325237
SL-16 R/B               
1 20625U 90046B   18035.42422370  .00000257  00000-0  15816-3 0  9993
2 20625  70.9994  21.7153 0012441 119.3634 240.8732 14.14624447430687
COSMOS 2084             
1 20663U 90055A   18034.77230078  .00000055  00000-0  22678-4 0  9995
2 20663  62.7918 175.0706 0133141 112.7450 248.7778 14.91767407494355
SL-6 R/B(2)             
1 20666U 90055D   18035.18435165 -.00000070  00000-0  12137-4 0  9995
2 20666  62.7848  91.9320 0112272 132.6718 228.3903 14.92081240495796
SL-8 R/B                
1 20775U 90078B   18035.55749728  .00000978  00000-0  47338-4 0  9992
2 20775  82.9267 217.5532 0583990 345.9887  12.5663 14.31670240382004
SL-8 R/B                
1 21088U 91006B   18034.99796295 -.00000060  00000-0 -76449-4 0  9999
2 21088  82.9412 207.9002 0023123  34.0172  80.3801 13.77077031357501
OKEAN-3                 
1 21397U 91039A   18034.75069759  .00000156  00000-0  12551-4 0  9998
2 21397  82.5216 278.4278 0017832 178.0994 182.0297 14.92620428444329
COSMOS 2151             
1 21422U 91042A   18034.93145040  .00000144  00000-0  11706-4 0  9997
2 21422  82.4996  25.9022 0012827 237.4383 122.5598 14.91921487421972
SL-14 R/B               
1 21423U 91042B   18034.66823888  .00000049  00000-0  34016-5 0  9995
2 21423  82.4940 105.1099 0016912 207.8089 152.2222 14.79721874436817
ERS-1                   
1 21574U 91050A   18034.82422813  .00000005  00000-0  16172-4 0  9996
2 21574  98.4894 343.6384 0032803 345.6133  14.4117 14.37629432390882
ARIANE 40 R/B           
1 21610U 91050F   18035.19251034 -.00000019  00000-0  82116-5 0  9991
2 21610  98.5740  97.7841 0002649 349.5344  74.8133 14.40826984393528
INTERCOSMOS 25          
1 21819U 91086A   18034.75280197  .00000399  00000-0  79256-4 0  9994
2 21819  82.5802 283.9678 1520331 314.2276  34.3296 12.04780129140164
SL-14 R/B               
1 21820U 91086B   18034.91416639  .00000085  00000-0  10691-4 0  9996
2 21820  82.5646 341.7708 1577223 150.8333 219.1011 11.93360102134421
SL-8 R/B                
1 21876U 92008B   18034.85364895  .00000040  00000-0  25315-4 0  9991
2 21876  82.9285 305.0253 0036051 106.7494 318.8214 13.75619794303009
SL-8 R/B                
1 21938U 92020B   18034.93709382  .00000103  00000-0  91510-4 0  9997
2 21938  82.9304 188.4067 0028011 265.1274 205.4436 13.75265392294848
SL-16 R/B               
1 22220U 92076B   18035.19532412  .00000216  00000-0  13243-3 0  9991
2 22220  71.0003 290.8795 0015137 277.8288 241.6978 14.16427107303624
SL-16 R/B               
1 22285U 92093B   18034.53853282  .00000249  00000-0  15309-3 0  9990
2 22285  71.0214  86.9637 0003225 165.9426 194.1787 14.15017636295265
COSMOS 2228             
1 22286U 92094A   18034.81041241  .00000167  00000-0  15369-4 0  9993
2 22286  82.5223 155.6708 0022640  74.2655 286.1057 14.87901346356937
SL-16 R/B               
1 22566U 93016B   18035.15671121 -.00000276  00000-0 -11811-3 0  9993
2 22566  71.0082 300.0020 0008983 153.1152 207.0438 14.14955206284085
COSMOS 2242             
1 22626U 93024A   18034.90888117  .00000159  00000-0  14599-4 0  9991
2 22626  82.5225 183.3478 0020382  73.4397 286.9057 14.87765967340303
SL-16 R/B               
1 22803U 93059B   18034.66437616 -.00000244  00000-0 -97613-4 0  9998
2 22803  70.9910 121.6612 0016060  25.7493 334.4427 14.16784957260811
ARIANE 40 R/B           
1 22830U 93061H   18034.64239784 -.00000054  00000-0 -28657-5 0  9997
2 22830  98.8712  60.1709 0010436 337.1626  22.9091 14.31414057271358
COSMOS 2278             
1 23087U 94023A   18034.92532565 -.00000038  00000-0  46826-5 0  9994
2 23087  71.0525 234.6316 0010526 231.5017 128.5162 14.13768060227002
SL-16 R/B               
1 23088U 94023B   18035.55373389 -.00000092  00000-0 -22999-4 0  9997
2 23088  71.0013 154.3518 0001125 141.9943 218.1259 14.14668512228404
SL-16 R/B               
1 23343U 94074B   18034.74836644 -.00000024  00000-0  41265-5 0  9997
2 23343  98.1243  78.7487 0007967  57.0052  58.7220 14.76722871251000
SL-16 R/B               
1 23405U 94077B   18034.55045954  .00000115  00000-0  83726-4 0  9991
2 23405  70.9827  88.9587 0004206 301.6982  58.3730 14.15195193197995
ERS-2                   
1 23560U 95021A   18035.11941206  .00000806  00000-0  39798-4 0  9998
2 23560  98.5523  63.8138 0002670 221.8704 138.2325 15.21468482210646
ARIANE 40+ R/B          
1 23561U 95021B   18034.99375617  .00000007  00000-0  17754-4 0  9992
2 23561  98.7961  46.5741 0006008 297.8494  91.6608 14.37856544194565
SL-16 R/B               
1 23705U 95058B   18034.95174159  .00000291  00000-0  17448-3 0  9990
2 23705  71.0205 262.7775 0014276 299.5361  60.4338 14.15108339149671
SL-16 R/B               
1 24298U 96051B   18034.93861766 -.00000135  00000-0 -46773-4 0  9990
2 24298  70.8433 293.6798 0017470 204.9769 155.0507 14.12468192104288
ORBVIEW 2 (SEASTAR)     
1 24883U 97037A   18034.86531691  .00000024  00000-0  24375-4 0  9997
2 24883  98.5521 145.6351 0003256 128.6410 231.5066 14.33434816 85092
SL-16 R/B               
1 25400U 98043G   18034.85709088 -.00000008  00000-0  14616-4 0  9997
2 25400  98.5191 341.0160 0009565 345.1561  14.9337 14.25428301 17848
SL-16 R/B               
1 25407U 98045B   18034.89689758  .00000091  00000-0  70731-4 0  9992
2 25407  71.0111 274.4990 0009321 225.5757 134.4604 14.15773315  8719
ISS (ZARYA)             
1 25544U 98067A   18034.79183760  .00002853  00000-0  50454-4 0  9997
2 25544  51.6426 323.7129 0003171  70.7646  24.2978 15.54051083 97779
SL-8 R/B                
1 25723U 99022C   18034.92240244  .00005002  00000-0  72081-4 0  9993
2 25723  48.4163   8.4649 0008766  69.5074 290.6813 15.57784261 42265
CZ-4B R/B               
1 25732U 99025C   18035.03310588 -.00000045  00000-0  32492-6 0  9995
2 25732  98.9959  44.6370 0037867 150.3543 272.6469 14.17644336969487
OKEAN-O                 
1 25860U 99039A   18035.51977608  .00000023  00000-0  10886-4 0  9993
2 25860  98.2080  28.8577 0001819  95.6921 264.4495 14.76529330998110
SL-16 R/B               
1 25861U 99039B   18034.90594485  .00000015  00000-0  94811-5 0  9996
2 25861  98.1365  13.1838 0016861  58.5441 353.8838 14.78459559999900
TERRA                   
1 25994U 99068A   18035.23922796  .00000025  00000-0  15651-4 0  9997
2 25994  98.2076 111.9836 0001445  91.5823 268.5584 14.57110618964465
ENVISAT                 
1 27386U 02009A   18035.45569374  .00000012  00000-0  17524-4 0  9993
2 27386  98.2021  75.6526 0001410  84.8593 275.2756 14.37914793834450
IDEFIX & ARIANE 42P R/B 
1 27422U 02021B   18034.88176382 -.00000043  00000-0 -93851-6 0  9992
2 27422  98.2451  27.5015 0011125 270.8179  89.1730 14.29260007821664
AQUA                    
1 27424U 02022A   18034.92990228  .00000067  00000-0  25026-4 0  9994
2 27424  98.2299 338.0375 0002412  97.2701 338.3329 14.57101323837976
CZ-4B R/B               
1 27432U 02024C   18034.90179998 -.00000030  00000-0  77058-5 0  9990
2 27432  99.0189  15.1475 0051454  96.9137 315.9425 14.14058063811464
MIDORI II (ADEOS-II)    
1 27597U 02056A   18034.87921305  .00000027  00000-0  28125-4 0  9995
2 27597  98.4034 359.9919 0001710  50.5489 309.5844 14.27333205788472
H-2A R/B                
1 27601U 02056E   18035.20273910  .00000041  00000-0  30159-4 0  9997
2 27601  98.3472  99.6311 0071422 328.0195  94.9121 14.31822743791013
